NORAD_CAT_ID,OBJECT_NAME,OBJECT_TYPE,EPOCH,MEAN_MOTION,ECCENTRICITY,INCLINATION,RA_OF_ASC_NODE,ARG_OF_PERICENTER,MEAN_ANOMALY,BSTAR,MEAN_MOTION_DOT,MEAN_MOTION_DDOT,TLE_LINE0,TLE_LINE1,TLE_LINE2,SEMIMAJOR_AXIS,PERIOD,APOGEE,PERIGEE,DECAYED
53591.0,STARLINK-4674,PAYLOAD,2024-04-14 08:51:43,15.08847782,0.0001565,53.2173,121.2118,86.1535,273.9636,9.0029e-05,1.145e-05,0.0,0 STARLINK-4674,1 53591U 22104D   24105.36925174  .00001145  00000-0  90029-4 0  9996,2 53591  53.2173 121.2118 0001565  86.1535 273.9636 15.08847782 90103,6917.857,95.437,540.804,538.639,0.0
53591.0,STARLINK-4674,PAYLOAD,2024-04-15 00:45:35,15.08841034,0.0001684,53.2177,118.2392,77.2491,282.869,7.1757e-05,8.54e-06,0.0,0 STARLINK-4674,1 53591U 22104D   24106.03165751  .00000854  00000-0  71757-4 0  9991,2 53591  53.2177 118.2392 0001684  77.2491 282.8690 15.08841034 90205,6917.877,95.437,540.907,538.577,0.0
53591.0,STARLINK-4674,PAYLOAD,2024-04-15 10:17:54,15.08841123,0.0001611,53.2175,116.4539,82.3112,277.8063,6.0178e-05,6.7e-06,0.0,0 STARLINK-4674,1 53591U 22104D   24106.42909748  .00000670  00000-0  60178-4 0  9997,2 53591  53.2175 116.4539 0001611  82.3112 277.8063 15.08841123 91302,6917.877,95.437,540.856,538.627,0.0
53591.0,STARLINK-4674,PAYLOAD,2024-04-15 18:14:49,15.08843434,0.0001643,53.2174,114.968,80.9351,279.1827,5.1255e-05,5.28e-06,0.0,0 STARLINK-4674,1 53591U 22104D   24106.76029628  .00000528  00000-0  51255-4 0  9992,2 53591  53.2174 114.9680 0001643  80.9351 279.1827 15.08843434 91350,6917.87,95.437,540.871,538.598,0.0
53591.0,STARLINK-4674,PAYLOAD,2024-04-16 05:22:31,15.08846046,0.0001539,53.217,112.8851,90.2043,269.9126,5.6492e-05,6.11e-06,0.0,0 STARLINK-4674,1 53591U 22104D   24107.22397337  .00000611  00000-0  56492-4 0  9990,2 53591  53.2170 112.8851 0001539  90.2043 269.9126 15.08846046 90382,6917.862,95.437,540.792,538.662,0.0
53591.0,STARLINK-4674,PAYLOAD,2024-04-16 06:57:54,15.08847295,0.0001557,53.2171,112.5877,91.0472,269.0698,6.6861e-05,7.76e-06,0.0,0 STARLINK-4674,1 53591U 22104D   24107.29021201  .00000776  00000-0  66861-4 0  9994,2 53591  53.2171 112.5877 0001557  91.0472 269.0698 15.08847295 91432,6917.858,95.437,540.8,538.646,0.0
53591.0,STARLINK-4674,PAYLOAD,2024-04-17 09:59:27,15.08846055,0.0001533,53.2168,107.5309,96.9266,263.19,0.0001038,1.365e-05,0.0,0 STARLINK-4674,1 53591U 22104D   24108.41629051  .00001365  00000-0  10380-3 0  9995,2 53591  53.2168 107.5309 0001533  96.9266 263.1900 15.08846055 90568,6917.862,95.437,540.787,538.666,0.0
53591.0,STARLINK-4674,PAYLOAD,2024-04-18 09:50:14,15.08835126,0.0001146,53.2168,103.0733,77.1267,282.9853,-4.5794e-05,-1.016e-05,0.0,0 STARLINK-4674,1 53591U 22104D   24109.40989306 -.00001016  00000-0 -45794-4 0  9990,2 53591  53.2168 103.0733 0001146  77.1267 282.9853 15.08835126 90712,6917.895,95.438,540.553,538.967,0.0
53591.0,STARLINK-4674,PAYLOAD,2024-04-19 04:54:53,15.08827802,0.0001405,53.2169,99.5026,103.6287,256.4862,-7.1207e-05,-1.421e-05,0.0,0 STARLINK-4674,1 53591U 22104D   24110.20478566 -.00001421  00000-0 -71207-4 0  9999,2 53591  53.2169  99.5026 0001405 103.6287 256.4862 15.08827802 90833,6917.918,95.438,540.755,538.811,0.0
53591.0,STARLINK-4674,PAYLOAD,2024-04-19 06:30:16,15.08830509,0.0001467,53.2174,99.2051,105.0658,255.0497,-4.6158e-05,-1.022e-05,0.0,0 STARLINK-4674,1 53591U 22104D   24110.27102377 -.00001022  00000-0 -46158-4 0  9994,2 53591  53.2174  99.2051 0001467 105.0658 255.0497 15.08830509 91883,6917.909,95.438,540.789,538.76,0.0
53591.0,STARLINK-4674,PAYLOAD,2024-04-20 04:45:40,15.08822822,0.0001684,53.2165,95.0418,96.8412,263.2772,0.00092591,0.00014472,0.0,0 STARLINK-4674,1 53591U 22104D   24111.19838434  .00014472  00000-0  92591-3 0  9998,2 53591  53.2165  95.0418 0001684  96.8412 263.2772 15.08822822 90986,6917.933,95.439,540.963,538.633,0.0
53591.0,STARLINK-4674,PAYLOAD,2024-04-20 07:56:25,15.08855931,0.000141,53.2169,94.4471,99.4678,260.6474,0.00058837,9.092e-05,0.0,0 STARLINK-4674,1 53591U 22104D   24111.33085010  .00009092  00000-0  58837-3 0  9995,2 53591  53.2169  94.4471 0001410  99.4678 260.6474 15.08855931 91003,6917.832,95.437,540.672,538.721,0.0
53591.0,STARLINK-4674,PAYLOAD,2024-04-21 04:36:27,15.08821006,0.0003407,53.2169,90.5821,151.1956,208.9225,-0.00031478,-5.293e-05,0.0,0 STARLINK-4674,1 53591U 22104D   24112.19198680 -.00005293  00000-0 -31478-3 0  9991,2 53591  53.2169  90.5821 0003407 151.1956 208.9225 15.08821006 91131,6917.938,95.439,542.16,537.447,0.0
53591.0,STARLINK-4674,PAYLOAD,2024-04-21 06:11:51,15.0882134,0.0001489,53.2162,90.2833,102.9345,257.1814,-6.9535e-05,-1.394e-05,0.0,0 STARLINK-4674,1 53591U 22104D   24112.25823268 -.00001394  00000-0 -69535-4 0  9999,2 53591  53.2162  90.2833 0001489 102.9345 257.1814 15.08821340 92185,6917.937,95.439,540.833,538.772,0.0
53591.0,STARLINK-4674,PAYLOAD,2024-04-21 22:05:43,15.08839004,0.0001706,53.2169,87.3095,73.8507,286.2673,0.0010389,0.00016284,0.0,0 STARLINK-4674,1 53591U 22104D   24112.92064075  .00016284  00000-0  10389-2 0  9999,2 53591  53.2169  87.3095 0001706  73.8507 286.2673 15.08839004 92280,6917.883,95.438,540.929,538.568,0.0
53591.0,STARLINK-4674,PAYLOAD,2024-04-22 04:27:15,15.08866866,0.000175,53.2161,86.124,76.8448,283.2739,0.0015996,0.0002528,0.0,0 STARLINK-4674,1 53591U 22104D   24113.18559424  .00025280  00000-0  15996-2 0  9990,2 53591  53.2161  86.1240 0001750  76.8448 283.2739 15.08866866 91282,6917.798,95.436,540.874,538.453,0.0
53591.0,STARLINK-4674,PAYLOAD,2024-04-23 04:18:02,15.08864241,0.0001612,53.217,81.6633,82.613,277.5045,0.0014883,0.00023493,0.0,0 STARLINK-4674,1 53591U 22104D   24114.17919070  .00023493  00000-0  14883-2 0  9995,2 53591  53.2170  81.6633 0001612  82.6130 277.5045 15.08864241 91436,6917.806,95.436,540.786,538.556,0.0
53591.0,STARLINK-4674,PAYLOAD,2024-04-23 07:28:48,15.08866026,0.0001948,53.2171,81.0697,60.5252,299.5935,0.0013087,0.00020616,0.0,0 STARLINK-4674,1 53591U 22104D   24114.31167066  .00020616  00000-0  13087-2 0  9990,2 53591  53.2171  81.0697 0001948  60.5252 299.5935 15.08866026 92495,6917.801,95.436,541.013,538.318,0.0
53591.0,STARLINK-4674,PAYLOAD,2024-04-24 02:33:25,15.08835061,0.000212,53.2182,77.4903,125.7747,234.3442,0.0011628,0.00018264,0.0,0 STARLINK-4674,1 53591U 22104D   24115.10655069  .00018264  00000-0  11628-2 0  9998,2 53591  53.2182  77.4903 0002120 125.7747 234.3442 15.08835061 91575,6917.895,95.438,541.227,538.294,0.0
53591.0,STARLINK-4674,PAYLOAD,2024-04-24 07:19:35,15.08838703,0.000196,53.2192,76.5982,122.2004,237.9178,0.0010687,0.00016761,0.0,0 STARLINK-4674,1 53591U 22104D   24115.30527138  .00016761  00000-0  10687-2 0  9999,2 53591  53.2192  76.5982 0001960 122.2004 237.9178 15.08838703 92642,6917.884,95.438,541.105,538.393,0.0
53591.0,STARLINK-4674,PAYLOAD,2024-04-25 03:59:36,15.08840623,0.0001693,53.2185,72.7331,110.0424,250.0751,5.5453e-05,5.95e-06,0.0,0 STARLINK-4674,1 53591U 22104D   24116.16639002  .00000595  00000-0  55453-4 0  9998,2 53591  53.2185  72.7331 0001693 110.0424 250.0751 15.08840623 91730,6917.878,95.438,540.915,538.572,0.0
53591.0,STARLINK-4674,PAYLOAD,2024-04-25 07:10:22,15.08839221,0.0001723,53.2187,72.1393,109.4956,250.6223,6.1885e-05,6.97e-06,0.0,0 STARLINK-4674,1 53591U 22104D   24116.29887025  .00000697  00000-0  61885-4 0  9991,2 53591  53.2187  72.1393 0001723 109.4956 250.6223 15.08839221 92799,6917.883,95.438,540.94,538.556,0.0
53591.0,STARLINK-4674,PAYLOAD,2024-04-25 21:28:51,15.08833852,0.000167,53.2191,69.4627,103.4305,256.6873,0.00023447,3.445e-05,0.0,0 STARLINK-4674,1 53591U 22104D   24116.89503725  .00003445  00000-0  23447-3 0  9994,2 53591  53.2191  69.4627 0001670 103.4305 256.6873 15.08833852 91842,6917.899,95.438,540.919,538.609,0.0
53591.0,STARLINK-4674,PAYLOAD,2024-04-26 13:22:42,15.08844088,0.0001409,53.2186,66.4913,90.2966,269.8187,0.00011611,1.561e-05,0.0,0 STARLINK-4674,1 53591U 22104D   24117.55743188  .00001561  00000-0  11611-3 0  9994,2 53591  53.2186  66.4913 0001409  90.2966 269.8187 15.08844088 92980,6917.868,95.437,540.708,538.758,0.0
53591.0,STARLINK-4674,PAYLOAD,2024-04-27 03:41:10,15.08854249,0.0001579,53.2185,63.828,107.3689,252.7475,0.00024351,3.591e-05,0.0,0 STARLINK-4674,1 53591U 22104D   24118.15358876  .00003591  00000-0  24351-3 0  9997,2 53591  53.2185  63.8280 0001579 107.3689 252.7475 15.08854249 92034,6917.837,95.437,540.794,538.61,0.0
53591.0,STARLINK-4674,PAYLOAD,2024-04-27 13:13:28,15.08849083,0.0001495,53.2177,62.0324,64.0971,296.0175,0.00017037,2.425e-05,0.0,0 STARLINK-4674,1 53591U 22104D   24118.55102890  .00002425  00000-0  17037-3 0  9992,2 53591  53.2177  62.0324 0001495  64.0971 296.0175 15.08849083 92099,6917.853,95.437,540.752,538.683,0.0
53591.0,STARLINK-4674,PAYLOAD,2024-04-28 05:07:21,15.08832578,0.0001407,53.2184,59.0624,80.3211,279.794,-6.1462e-05,-1.266e-05,0.0,0 STARLINK-4674,1 53591U 22104D   24119.21344106 -.00001266  00000-0 -61462-4 0  9990,2 53591  53.2184  59.0624 0001407  80.3211 279.7940 15.08832578 92197,6917.903,95.438,540.741,538.795,0.0
53591.0,STARLINK-4674,PAYLOAD,2024-04-28 13:04:17,15.08834188,0.0001773,53.2203,57.5772,81.2685,278.8508,-2.0731e-06,-3.21e-06,0.0,0 STARLINK-4674,1 53591U 22104D   24119.54464313 -.00000321  00000-0 -20731-5 0  9995,2 53591  53.2203  57.5772 0001773  81.2685 278.8508 15.08834188 93287,6917.898,95.438,540.99,538.537,0.0
53591.0,STARLINK-4674,PAYLOAD,2024-04-29 04:58:08,15.08849435,0.0001393,53.2173,54.6026,83.6661,276.449,0.00031921,4.797e-05,0.0,0 STARLINK-4674,1 53591U 22104D   24120.20703728  .00004797  00000-0  31921-3 0  9996,2 53591  53.2173  54.6026 0001393  83.6661 276.4490 15.08849435 92342,6917.852,95.437,540.68,538.753,0.0
53591.0,STARLINK-4674,PAYLOAD,2024-04-29 12:55:04,15.08840126,0.0001358,53.218,53.1164,89.5591,270.5557,0.0003015,4.514e-05,0.0,0 STARLINK-4674,1 53591U 22104D   24120.53824227  .00004514  00000-0  30150-3 0  9990,2 53591  53.2180  53.1164 0001358  89.5591 270.5557 15.08840126 92397,6917.88,95.438,540.684,538.806,0.0
